<?xml version="1.0" encoding="UTF-8"?>
<ndm xmlns:xsi="http://www.w3.org/2001/XMLSchema-instance" xsi:noNamespaceSchemaLocation="https://sanaregistry.org/r/ndmxml_unqualified/ndmxml-2.0.0-master-2.0.xsd">
<omm id="CCSDS_OMM_VERS" version="2.0">
<header><CREATION_DATE/><ORIGINATOR/></header><body><segment><metadata><OBJECT_NAME>ORBCOMM FM24</OBJECT_NAME><OBJECT_ID>1998-053D</OBJECT_ID><CENTER_NAME>EARTH</CENTER_NAME><REF_FRAME>TEME</REF_FRAME><TIME_SYSTEM>UTC</TIME_SYSTEM><MEAN_ELEMENT_THEORY>SGP4</MEAN_ELEMENT_THEORY></metadata><data><meanElements><EPOCH>2024-11-09T12:00:35.976960</EPOCH><MEAN_MOTION>14.36943030</MEAN_MOTION><ECCENTRICITY>.0000834</ECCENTRICITY><INCLINATION>45.0069</INCLINATION><RA_OF_ASC_NODE>229.8828</RA_OF_ASC_NODE><ARG_OF_PERICENTER>238.7459</ARG_OF_PERICENTER><MEAN_ANOMALY>121.3307</MEAN_ANOMALY></meanElements><tleParameters><EPHEMERIS_TYPE>0</EPHEMERIS_TYPE><CLASSIFICATION_TYPE>U</CLASSIFICATION_TYPE><NORAD_CAT_ID>25478</NORAD_CAT_ID><ELEMENT_SET_NO>999</ELEMENT_SET_NO><REV_AT_EPOCH>36583</REV_AT_EPOCH><BSTAR>.27615E-2</BSTAR><MEAN_MOTION_DOT>.8119E-4</MEAN_MOTION_DOT><MEAN_MOTION_DDOT>0</MEAN_MOTION_DDOT></tleParameters></data></segment></body></omm>
<omm id="CCSDS_OMM_VERS" version="2.0">
<header><CREATION_DATE/><ORIGINATOR/></header><body><segment><metadata><OBJECT_NAME>ORBCOMM FM25</OBJECT_NAME><OBJECT_ID>1998-053E</OBJECT_ID><CENTER_NAME>EARTH</CENTER_NAME><REF_FRAME>TEME</REF_FRAME><TIME_SYSTEM>UTC</TIME_SYSTEM><MEAN_ELEMENT_THEORY>SGP4</MEAN_ELEMENT_THEORY></metadata><data><meanElements><EPOCH>2024-11-09T11:15:07.689600</EPOCH><MEAN_MOTION>14.36931531</MEAN_MOTION><ECCENTRICITY>.0003347</ECCENTRICITY><INCLINATION>45.0062</INCLINATION><RA_OF_ASC_NODE>228.2860</RA_OF_ASC_NODE><ARG_OF_PERICENTER>234.7625</ARG_OF_PERICENTER><MEAN_ANOMALY>125.2910</MEAN_ANOMALY></meanElements><tleParameters><EPHEMERIS_TYPE>0</EPHEMERIS_TYPE><CLASSIFICATION_TYPE>U</CLASSIFICATION_TYPE><NORAD_CAT_ID>25479</NORAD_CAT_ID><ELEMENT_SET_NO>999</ELEMENT_SET_NO><REV_AT_EPOCH>36612</REV_AT_EPOCH><BSTAR>.23663E-2</BSTAR><MEAN_MOTION_DOT>.6935E-4</MEAN_MOTION_DOT><MEAN_MOTION_DDOT>0</MEAN_MOTION_DDOT></tleParameters></data></segment></body></omm>
<omm id="CCSDS_OMM_VERS" version="2.0">
<header><CREATION_DATE/><ORIGINATOR/></header><body><segment><metadata><OBJECT_NAME>ORBCOMM FM26</OBJECT_NAME><OBJECT_ID>1998-053F</OBJECT_ID><CENTER_NAME>EARTH</CENTER_NAME><REF_FRAME>TEME</REF_FRAME><TIME_SYSTEM>UTC</TIME_SYSTEM><MEAN_ELEMENT_THEORY>SGP4</MEAN_ELEMENT_THEORY></metadata><data><meanElements><EPOCH>2024-11-09T05:00:40.040928</EPOCH><MEAN_MOTION>14.36163401</MEAN_MOTION><ECCENTRICITY>.0005558</ECCENTRICITY><INCLINATION>45.0057</INCLINATION><RA_OF_ASC_NODE>224.5207</RA_OF_ASC_NODE><ARG_OF_PERICENTER>252.3185</ARG_OF_PERICENTER><MEAN_ANOMALY>107.7056</MEAN_ANOMALY></meanElements><tleParameters><EPHEMERIS_TYPE>0</EPHEMERIS_TYPE><CLASSIFICATION_TYPE>U</CLASSIFICATION_TYPE><NORAD_CAT_ID>25480</NORAD_CAT_ID><ELEMENT_SET_NO>999</ELEMENT_SET_NO><REV_AT_EPOCH>36601</REV_AT_EPOCH><BSTAR>.18436E-2</BSTAR><MEAN_MOTION_DOT>.5287E-4</MEAN_MOTION_DOT><MEAN_MOTION_DDOT>0</MEAN_MOTION_DDOT></tleParameters></data></segment></body></omm>
<omm id="CCSDS_OMM_VERS" version="2.0">
<header><CREATION_DATE/><ORIGINATOR/></header><body><segment><metadata><OBJECT_NAME>ORBCOMM FM27</OBJECT_NAME><OBJECT_ID>1998-053G</OBJECT_ID><CENTER_NAME>EARTH</CENTER_NAME><REF_FRAME>TEME</REF_FRAME><TIME_SYSTEM>UTC</TIME_SYSTEM><MEAN_ELEMENT_THEORY>SGP4</MEAN_ELEMENT_THEORY></metadata><data><meanElements><EPOCH>2024-11-09T11:00:02.673792</EPOCH><MEAN_MOTION>14.36923476</MEAN_MOTION><ECCENTRICITY>.0000977</ECCENTRICITY><INCLINATION>45.0041</INCLINATION><RA_OF_ASC_NODE>228.5901</RA_OF_ASC_NODE><ARG_OF_PERICENTER>355.0443</ARG_OF_PERICENTER><MEAN_ANOMALY>5.0395</MEAN_ANOMALY></meanElements><tleParameters><EPHEMERIS_TYPE>0</EPHEMERIS_TYPE><CLASSIFICATION_TYPE>U</CLASSIFICATION_TYPE><NORAD_CAT_ID>25481</NORAD_CAT_ID><ELEMENT_SET_NO>999</ELEMENT_SET_NO><REV_AT_EPOCH>36605</REV_AT_EPOCH><BSTAR>.23862E-2</BSTAR><MEAN_MOTION_DOT>.6993E-4</MEAN_MOTION_DOT><MEAN_MOTION_DDOT>0</MEAN_MOTION_DDOT></tleParameters></data></segment></body></omm>
<omm id="CCSDS_OMM_VERS" version="2.0">
<header><CREATION_DATE/><ORIGINATOR/></header><body><segment><metadata><OBJECT_NAME>ORBCOMM FM28</OBJECT_NAME><OBJECT_ID>1998-053H</OBJECT_ID><CENTER_NAME>EARTH</CENTER_NAME><REF_FRAME>TEME</REF_FRAME><TIME_SYSTEM>UTC</TIME_SYSTEM><MEAN_ELEMENT_THEORY>SGP4</MEAN_ELEMENT_THEORY></metadata><data><meanElements><EPOCH>2024-11-09T07:48:31.511808</EPOCH><MEAN_MOTION>14.37232369</MEAN_MOTION><ECCENTRICITY>.0003562</ECCENTRICITY><INCLINATION>45.0039</INCLINATION><RA_OF_ASC_NODE>167.1362</RA_OF_ASC_NODE><ARG_OF_PERICENTER>272.5837</ARG_OF_PERICENTER><MEAN_ANOMALY>87.4603</MEAN_ANOMALY></meanElements><tleParameters><EPHEMERIS_TYPE>0</EPHEMERIS_TYPE><CLASSIFICATION_TYPE>U</CLASSIFICATION_TYPE><NORAD_CAT_ID>25482</NORAD_CAT_ID><ELEMENT_SET_NO>999</ELEMENT_SET_NO><REV_AT_EPOCH>36671</REV_AT_EPOCH><BSTAR>.16931E-2</BSTAR><MEAN_MOTION_DOT>.4951E-4</MEAN_MOTION_DOT><MEAN_MOTION_DDOT>0</MEAN_MOTION_DDOT></tleParameters></data></segment></body></omm>
<omm id="CCSDS_OMM_VERS" version="2.0">
<header><CREATION_DATE/><ORIGINATOR/></header><body><segment><metadata><OBJECT_NAME>ORBCOMM FM30</OBJECT_NAME><OBJECT_ID>1999-065A</OBJECT_ID><CENTER_NAME>EARTH</CENTER_NAME><REF_FRAME>TEME</REF_FRAME><TIME_SYSTEM>UTC</TIME_SYSTEM><MEAN_ELEMENT_THEORY>SGP4</MEAN_ELEMENT_THEORY></metadata><data><meanElements><EPOCH>2024-11-09T12:01:20.346816</EPOCH><MEAN_MOTION>14.36318116</MEAN_MOTION><ECCENTRICITY>.0005854</ECCENTRICITY><INCLINATION>45.0319</INCLINATION><RA_OF_ASC_NODE>48.8440</RA_OF_ASC_NODE><ARG_OF_PERICENTER>329.3695</ARG_OF_PERICENTER><MEAN_ANOMALY>30.6811</MEAN_ANOMALY></meanElements><tleParameters><EPHEMERIS_TYPE>0</EPHEMERIS_TYPE><CLASSIFICATION_TYPE>U</CLASSIFICATION_TYPE><NORAD_CAT_ID>25980</NORAD_CAT_ID><ELEMENT_SET_NO>999</ELEMENT_SET_NO><REV_AT_EPOCH>30285</REV_AT_EPOCH><BSTAR>.25667E-2</BSTAR><MEAN_MOTION_DOT>.7441E-4</MEAN_MOTION_DOT><MEAN_MOTION_DDOT>0</MEAN_MOTION_DDOT></tleParameters></data></segment></body></omm>
<omm id="CCSDS_OMM_VERS" version="2.0">
<header><CREATION_DATE/><ORIGINATOR/></header><body><segment><metadata><OBJECT_NAME>ORBCOMM FM31</OBJECT_NAME><OBJECT_ID>1999-065B</OBJECT_ID><CENTER_NAME>EARTH</CENTER_NAME><REF_FRAME>TEME</REF_FRAME><TIME_SYSTEM>UTC</TIME_SYSTEM><MEAN_ELEMENT_THEORY>SGP4</MEAN_ELEMENT_THEORY></metadata><data><meanElements><EPOCH>2024-11-09T12:54:22.144320</EPOCH><MEAN_MOTION>14.36295578</MEAN_MOTION><ECCENTRICITY>.00027</ECCENTRICITY><INCLINATION>45.0232</INCLINATION><RA_OF_ASC_NODE>42.2499</RA_OF_ASC_NODE><ARG_OF_PERICENTER>340.1815</ARG_OF_PERICENTER><MEAN_ANOMALY>19.8928</MEAN_ANOMALY></meanElements><tleParameters><EPHEMERIS_TYPE>0</EPHEMERIS_TYPE><CLASSIFICATION_TYPE>U</CLASSIFICATION_TYPE><NORAD_CAT_ID>25981</NORAD_CAT_ID><ELEMENT_SET_NO>999</ELEMENT_SET_NO><REV_AT_EPOCH>30241</REV_AT_EPOCH><BSTAR>.24751E-2</BSTAR><MEAN_MOTION_DOT>.7166E-4</MEAN_MOTION_DOT><MEAN_MOTION_DDOT>0</MEAN_MOTION_DDOT></tleParameters></data></segment></body></omm>
<omm id="CCSDS_OMM_VERS" version="2.0">
<header><CREATION_DATE/><ORIGINATOR/></header><body><segment><metadata><OBJECT_NAME>ORBCOMM FM32</OBJECT_NAME><OBJECT_ID>1999-065C</OBJECT_ID><CENTER_NAME>EARTH</CENTER_NAME><REF_FRAME>TEME</REF_FRAME><TIME_SYSTEM>UTC</TIME_SYSTEM><MEAN_ELEMENT_THEORY>SGP4</MEAN_ELEMENT_THEORY></metadata><data><meanElements><EPOCH>2024-11-09T13:49:25.469472</EPOCH><MEAN_MOTION>14.35313712</MEAN_MOTION><ECCENTRICITY>.0004364</ECCENTRICITY><INCLINATION>45.0153</INCLINATION><RA_OF_ASC_NODE>57.1559</RA_OF_ASC_NODE><ARG_OF_PERICENTER>356.8159</ARG_OF_PERICENTER><MEAN_ANOMALY>3.2660</MEAN_ANOMALY></meanElements><tleParameters><EPHEMERIS_TYPE>0</EPHEMERIS_TYPE><CLASSIFICATION_TYPE>U</CLASSIFICATION_TYPE><NORAD_CAT_ID>25982</NORAD_CAT_ID><ELEMENT_SET_NO>999</ELEMENT_SET_NO><REV_AT_EPOCH>30303</REV_AT_EPOCH><BSTAR>.25971E-2</BSTAR><MEAN_MOTION_DOT>.7378E-4</MEAN_MOTION_DOT><MEAN_MOTION_DDOT>0</MEAN_MOTION_DDOT></tleParameters></data></segment></body></omm>

</ndm>
