ORBCOMM FM24            
1 25478U 98053D   24314.50041640  .00008119  00000+0  27615-2 0  9996
2 25478  45.0069 229.8828 0000834 238.7459 121.3307 14.36943030365839
ORBCOMM FM25            
1 25479U 98053E   24314.46883900  .00006935  00000+0  23663-2 0  9998
2 25479  45.0062 228.2860 0003347 234.7625 125.2910 14.36931531366124
ORBCOMM FM26            
1 25480U 98053F   24314.20879677  .00005287  00000+0  18436-2 0  9999
2 25480  45.0057 224.5207 0005558 252.3185 107.7056 14.36163401366014
ORBCOMM FM27            
1 25481U 98053G   24314.45836428  .00006993  00000+0  23862-2 0  9998
2 25481  45.0041 228.5901 0000977 355.0443   5.0395 14.36923476366057
ORBCOMM FM28            
1 25482U 98053H   24314.32536472  .00004951  00000+0  16931-2 0  9992
2 25482  45.0039 167.1362 0003562 272.5837  87.4603 14.37232369366711
ORBCOMM FM30            
1 25980U 99065A   24314.50092994  .00007441  00000+0  25667-2 0  9998
2 25980  45.0319  48.8440 0005854 329.3695  30.6811 14.36318116302856
ORBCOMM FM31            
1 25981U 99065B   24314.53775630  .00007166  00000+0  24751-2 0  9994
2 25981  45.0232  42.2499 0002700 340.1815  19.8928 14.36295578302411
ORBCOMM FM32            
1 25982U 99065C   24314.57598923  .00007378  00000+0  25971-2 0  9997
2 25982  45.0153  57.1559 0004364 356.8159   3.2660 14.35313712303038
